start=new Date('2023-05-08T00:00:00.000Z').valueOf();
sats=[{"SITE":"AFETR","EPOCH":"2023-05-07T13:01:01.159392","TIME_SYSTEM":"UTC","EPHEMERIS_TYPE":"0","SEMIMAJOR_AXIS":"6917.876","RCS_SIZE":"LARGE","MEAN_MOTION_DOT":"-0.00000953","REV_AT_EPOCH":"3746","LAUNCH_DATE":"2022-09-05","OBJECT_TYPE":"PAYLOAD","REF_FRAME":"TEME","TLE_LINE2":"2 53712  53.2161 224.8034 0001298 125.3470 234.7644 15.08841283 37463","ARG_OF_PERICENTER":"125.3470","APOAPSIS":"540.639","ECCENTRICITY":"0.00012980","PERIOD":"95.437","COUNTRY_CODE":"US","INCLINATION":"53.2161","OBJECT_NAME":"STARLINK-4683","OBJECT_ID":"2022-107N","TLE_LINE1":"1 53712U 22107N   23127.54237453 -.00000953  00000-0 -41768-4 0  9997","CENTER_NAME":"EARTH","MEAN_ELEMENT_THEORY":"SGP4","MEAN_MOTION_DDOT":"0.0000000000000","FILE":"3903179","MEAN_ANOMALY":"234.7644","DECAY_DATE":null,"BSTAR":"-0.00004176800000","RA_OF_ASC_NODE":"224.8034","NORAD_CAT_ID":"53712","GP_ID":"231374332","MEAN_MOTION":"15.08841283","CLASSIFICATION_TYPE":"U","PERIAPSIS":"538.844","ELEMENT_SET_NO":"999"},{"RCS_SIZE":"LARGE","MEAN_MOTION_DOT":"0.00004261","REV_AT_EPOCH":"3784","EPOCH":"2023-05-07T14:21:04.429152","SITE":"AFETR","TIME_SYSTEM":"UTC","EPHEMERIS_TYPE":"0","SEMIMAJOR_AXIS":"6917.831","TLE_LINE2":"2 53713  53.2143 229.4046 0000974 101.2676 258.8426 15.08856106 37846","ARG_OF_PERICENTER":"101.2676","APOAPSIS":"540.370","ECCENTRICITY":"0.00009740","OBJECT_NAME":"STARLINK-4698","COUNTRY_CODE":"US","INCLINATION":"53.2143","OBJECT_ID":"2022-107P","PERIOD":"95.437","LAUNCH_DATE":"2022-09-05","OBJECT_TYPE":"PAYLOAD","REF_FRAME":"TEME","MEAN_ELEMENT_THEORY":"SGP4","MEAN_MOTION_DDOT":"0.0000000000000","FILE":"3903413","MEAN_ANOMALY":"258.8426","CENTER_NAME":"EARTH","TLE_LINE1":"1 53713U 22107P   23127.59796793  .00004261  00000-0  28548-3 0  9994","NORAD_CAT_ID":"53713","MEAN_MOTION":"15.08856106","GP_ID":"231431062","ELEMENT_SET_NO":"999","CLASSIFICATION_TYPE":"U","PERIAPSIS":"539.022","BSTAR":"0.00028548000000","DECAY_DATE":null,"RA_OF_ASC_NODE":"229.4046"},{"TLE_LINE2":"2 53714  53.2141 205.1247 0000993  93.3971 266.7134 15.08853006 38176","ARG_OF_PERICENTER":"93.3971","APOAPSIS":"540.393","ECCENTRICITY":"0.00009930","PERIOD":"95.437","INCLINATION":"53.2141","COUNTRY_CODE":"US","OBJECT_NAME":"STARLINK-4688","OBJECT_ID":"2022-107Q","LAUNCH_DATE":"2022-09-05","OBJECT_TYPE":"PAYLOAD","REF_FRAME":"TEME","MEAN_MOTION_DOT":"0.00005459","RCS_SIZE":"LARGE","REV_AT_EPOCH":"3817","SITE":"AFETR","EPOCH":"2023-05-07T11:26:53.662272","TIME_SYSTEM":"UTC","EPHEMERIS_TYPE":"0","SEMIMAJOR_AXIS":"6917.841","NORAD_CAT_ID":"53714","GP_ID":"231398481","MEAN_MOTION":"15.08853006","CLASSIFICATION_TYPE":"U","PERIAPSIS":"539.019","ELEMENT_SET_NO":"999","BSTAR":"0.00036066000000","DECAY_DATE":null,"RA_OF_ASC_NODE":"205.1247","MEAN_ELEMENT_THEORY":"SGP4","MEAN_MOTION_DDOT":"0.0000000000000","FILE":"3903215","MEAN_ANOMALY":"266.7134","TLE_LINE1":"1 53714U 22107Q   23127.47700998  .00005459  00000-0  36066-3 0  9998","CENTER_NAME":"EARTH"},{"TIME_SYSTEM":"UTC","EPOCH":"2023-05-07T13:01:36.368256","SITE":"AFETR","SEMIMAJOR_AXIS":"6917.897","EPHEMERIS_TYPE":"0","MEAN_MOTION_DOT":"-0.00002579","RCS_SIZE":"LARGE","REV_AT_EPOCH":"3738","LAUNCH_DATE":"2022-09-05","REF_FRAME":"TEME","OBJECT_TYPE":"PAYLOAD","ARG_OF_PERICENTER":"106.2116","TLE_LINE2":"2 53715  53.2157 229.7695 0000751 106.2116 253.8959 15.08834688 37389","OBJECT_NAME":"STARLINK-4686","COUNTRY_CODE":"US","INCLINATION":"53.2157","OBJECT_ID":"2022-107R","PERIOD":"95.438","ECCENTRICITY":"0.00007510","APOAPSIS":"540.281","TLE_LINE1":"1 53715U 22107R   23127.54278204 -.00002579  00000-0 -14406-3 0  9993","CENTER_NAME":"EARTH","MEAN_MOTION_DDOT":"0.0000000000000","MEAN_ELEMENT_THEORY":"SGP4","MEAN_ANOMALY":"253.8959","FILE":"3903179","BSTAR":"-0.00014406000000","DECAY_DATE":null,"RA_OF_ASC_NODE":"229.7695","NORAD_CAT_ID":"53715","ELEMENT_SET_NO":"999","PERIAPSIS":"539.242","CLASSIFICATION_TYPE":"U","MEAN_MOTION":"15.08834688","GP_ID":"231374781"},{"FILE":"3903413","MEAN_ANOMALY":"266.9592","MEAN_ELEMENT_THEORY":"SGP4","MEAN_MOTION_DDOT":"0.0000000000000","TLE_LINE1":"1 53716U 22107S   23127.60535730  .00000591  00000-0  55213-4 0  9993","CENTER_NAME":"EARTH","GP_ID":"231429812","MEAN_MOTION":"15.08829915","PERIAPSIS":"539.292","CLASSIFICATION_TYPE":"U","ELEMENT_SET_NO":"999","NORAD_CAT_ID":"53716","RA_OF_ASC_NODE":"229.4492","BSTAR":"0.00005521300000","DECAY_DATE":null,"REV_AT_EPOCH":"3784","RCS_SIZE":"LARGE","MEAN_MOTION_DOT":"0.00000591","EPHEMERIS_TYPE":"0","SEMIMAJOR_AXIS":"6917.911","SITE":"AFETR","EPOCH":"2023-05-07T14:31:42.870720","TIME_SYSTEM":"UTC","APOAPSIS":"540.260","ECCENTRICITY":"0.00007000","PERIOD":"95.438","COUNTRY_CODE":"US","INCLINATION":"53.2148","OBJECT_NAME":"STARLINK-4699","OBJECT_ID":"2022-107S","TLE_LINE2":"2 53716  53.2148 229.4492 0000700  93.1480 266.9592 15.08829915 37840","ARG_OF_PERICENTER":"93.1480","OBJECT_TYPE":"PAYLOAD","REF_FRAME":"TEME","LAUNCH_DATE":"2022-09-05"},{"SITE":"AFETR","EPOCH":"2023-05-07T14:26:22.878816","TIME_SYSTEM":"UTC","EPHEMERIS_TYPE":"0","SEMIMAJOR_AXIS":"6917.803","RCS_SIZE":"LARGE","MEAN_MOTION_DOT":"0.00020416","REV_AT_EPOCH":"3784","LAUNCH_DATE":"2022-09-05","OBJECT_TYPE":"PAYLOAD","REF_FRAME":"TEME","TLE_LINE2":"2 53718  53.2135 229.4285 0000781  87.6741 272.4341 15.08865315 37843","ARG_OF_PERICENTER":"87.6741","APOAPSIS":"540.208","ECCENTRICITY":"0.00007810","PERIOD":"95.436","INCLINATION":"53.2135","COUNTRY_CODE":"US","OBJECT_ID":"2022-107U","OBJECT_NAME":"STARLINK-4695","TLE_LINE1":"1 53718U 22107U   23127.60165369  .00020416  00000-0  12962-2 0  9992","CENTER_NAME":"EARTH","MEAN_ELEMENT_THEORY":"SGP4","MEAN_MOTION_DDOT":"0.0000000000000","FILE":"3903413","MEAN_ANOMALY":"272.4341","DECAY_DATE":null,"BSTAR":"0.00129620000000","RA_OF_ASC_NODE":"229.4285","NORAD_CAT_ID":"53718","GP_ID":"231430563","MEAN_MOTION":"15.08865315","CLASSIFICATION_TYPE":"U","PERIAPSIS":"539.128","ELEMENT_SET_NO":"999"},{"LAUNCH_DATE":"2022-09-05","OBJECT_TYPE":"PAYLOAD","REF_FRAME":"TEME","TLE_LINE2":"2 53719  53.2162 206.9552 0001581 102.8837 257.2332 15.08839905 38024","ARG_OF_PERICENTER":"102.8837","ECCENTRICITY":"0.00015810","APOAPSIS":"540.839","COUNTRY_CODE":"US","INCLINATION":"53.2162","OBJECT_ID":"2022-107V","OBJECT_NAME":"STARLINK-4644","PERIOD":"95.438","EPOCH":"2023-05-05T22:57:43.955136","SITE":"AFETR","TIME_SYSTEM":"UTC","EPHEMERIS_TYPE":"0","SEMIMAJOR_AXIS":"6917.881","MEAN_MOTION_DOT":"0.00000878","RCS_SIZE":"LARGE","REV_AT_EPOCH":"3802","DECAY_DATE":null,"BSTAR":"0.00007324500000","RA_OF_ASC_NODE":"206.9552","NORAD_CAT_ID":"53719","MEAN_MOTION":"15.08839905","GP_ID":"231353009","ELEMENT_SET_NO":"999","CLASSIFICATION_TYPE":"U","PERIAPSIS":"538.652","TLE_LINE1":"1 53719U 22107V   23125.95675874  .00000878  00000-0  73245-4 0  9999","CENTER_NAME":"EARTH","MEAN_ELEMENT_THEORY":"SGP4","MEAN_MOTION_DDOT":"0.0000000000000","FILE":"3902298","MEAN_ANOMALY":"257.2332"},{"ARG_OF_PERICENTER":"104.3222","TLE_LINE2":"2 53720  53.2169 229.7898 0001149 104.3222 255.7898 15.08833337 37846","PERIOD":"95.438","COUNTRY_CODE":"US","INCLINATION":"53.2169","OBJECT_ID":"2022-107W","OBJECT_NAME":"STARLINK-4642","ECCENTRICITY":"0.00011490","APOAPSIS":"540.561","LAUNCH_DATE":"2022-09-05","REF_FRAME":"TEME","OBJECT_TYPE":"PAYLOAD","RCS_SIZE":"LARGE","MEAN_MOTION_DOT":"-0.00002335","REV_AT_EPOCH":"3784","TIME_SYSTEM":"UTC","SITE":"AFETR","EPOCH":"2023-05-07T13:06:56.474208","SEMIMAJOR_AXIS":"6917.901","EPHEMERIS_TYPE":"0","NORAD_CAT_ID":"53720","CLASSIFICATION_TYPE":"U","PERIAPSIS":"538.971","ELEMENT_SET_NO":"999","GP_ID":"231399231","MEAN_MOTION":"15.08833337","DECAY_DATE":null,"BSTAR":"-0.00012868000000","RA_OF_ASC_NODE":"229.7898","MEAN_MOTION_DDOT":"0.0000000000000","MEAN_ELEMENT_THEORY":"SGP4","MEAN_ANOMALY":"255.7898","FILE":"3903215","TLE_LINE1":"1 53720U 22107W   23127.54648697 -.00002335  00000-0 -12868-3 0  9996","CENTER_NAME":"EARTH"},{"NORAD_CAT_ID":"53721","GP_ID":"231399483","MEAN_MOTION":"15.08845779","PERIAPSIS":"539.232","CLASSIFICATION_TYPE":"U","ELEMENT_SET_NO":"999","BSTAR":"0.00012365000000","DECAY_DATE":null,"RA_OF_ASC_NODE":"229.8401","MEAN_ELEMENT_THEORY":"SGP4","MEAN_MOTION_DDOT":"0.0000000000000","FILE":"3903215","MEAN_ANOMALY":"247.9051","CENTER_NAME":"EARTH","TLE_LINE1":"1 53721U 22107X   23127.55384035  .00001681  00000-0  12365-3 0  9994","TLE_LINE2":"2 53721  53.2146 229.8401 0000716 112.2017 247.9051 15.08845779 37849","ARG_OF_PERICENTER":"112.2017","APOAPSIS":"540.223","ECCENTRICITY":"0.00007160","PERIOD":"95.437","COUNTRY_CODE":"US","OBJECT_NAME":"STARLINK-4707","INCLINATION":"53.2146","OBJECT_ID":"2022-107X","LAUNCH_DATE":"2022-09-05","OBJECT_TYPE":"PAYLOAD","REF_FRAME":"TEME","MEAN_MOTION_DOT":"0.00001681","RCS_SIZE":"LARGE","REV_AT_EPOCH":"3784","SITE":"AFETR","EPOCH":"2023-05-07T13:17:31.806240","TIME_SYSTEM":"UTC","EPHEMERIS_TYPE":"0","SEMIMAJOR_AXIS":"6917.863"},{"TLE_LINE1":"1 53722U 22107Y   23127.49497229  .00003249  00000-0  22206-3 0  9995","CENTER_NAME":"EARTH","MEAN_ELEMENT_THEORY":"SGP4","MEAN_MOTION_DDOT":"0.0000000000000","FILE":"3903215","MEAN_ANOMALY":"261.0034","BSTAR":"0.00022206000000","DECAY_DATE":null,"RA_OF_ASC_NODE":"230.1806","NORAD_CAT_ID":"53722","MEAN_MOTION":"15.08847086","GP_ID":"231399734","ELEMENT_SET_NO":"999","PERIAPSIS":"538.768","CLASSIFICATION_TYPE":"U","EPOCH":"2023-05-07T11:52:45.605856","SITE":"AFETR","TIME_SYSTEM":"UTC","EPHEMERIS_TYPE":"0","SEMIMAJOR_AXIS":"6917.859","RCS_SIZE":"LARGE","MEAN_MOTION_DOT":"0.00003249","REV_AT_EPOCH":"3782","LAUNCH_DATE":"2022-09-05","OBJECT_TYPE":"PAYLOAD","REF_FRAME":"TEME","TLE_LINE2":"2 53722  53.2139 230.1806 0001381  99.1115 261.0034 15.08847086 37826","ARG_OF_PERICENTER":"99.1115","APOAPSIS":"540.679","ECCENTRICITY":"0.00013810","OBJECT_ID":"2022-107Y","COUNTRY_CODE":"US","INCLINATION":"53.2139","OBJECT_NAME":"STARLINK-4700","PERIOD":"95.437"}];
